{
  "norad_id": 66905,
  "name": "STARLINK-36075",
  "history": [
    {
      "epoch": "2026-05-05T06:47:06.052416Z",
      "apogee_km": 475.7596245627319,
      "perigee_km": 474.5465922135472,
      "latitude_deg": 4.973740183437391e-05,
      "longitude_deg": 156.72379577051302,
      "height_km": 475.97999294764287,
      "semi_major_axis_km": 6853.29010838814,
      "eccentricity": 8.85e-05,
      "inclination_deg": 53.1572,
      "raan_deg": 121.6589,
      "arg_perigee_deg": 83.2377,
      "mean_anomaly_deg": 276.8725,
      "mean_motion_rev_day": 15.30220752
    },
    {
      "epoch": "2026-05-06T09:26:00.546432Z",
      "apogee_km": 476.0281842137856,
      "perigee_km": 474.4353242479265,
      "latitude_deg": 1.5114532582416122e-05,
      "longitude_deg": 110.74789350958147,
      "height_km": 476.1523293534645,
      "semi_major_axis_km": 6853.368754230855,
      "eccentricity": 0.00011621,
      "inclination_deg": 53.1581,
      "raan_deg": 116.5045,
      "arg_perigee_deg": 91.6233,
      "mean_anomaly_deg": 268.4901,
      "mean_motion_rev_day": 15.30194412
    },
    {
      "epoch": "2026-05-07T12:04:55.159680Z",
      "apogee_km": 476.0163788280415,
      "perigee_km": 474.3784319051583,
      "latitude_deg": -1.8387507751819706e-06,
      "longitude_deg": 64.7687064645646,
      "height_km": 475.8108003890514,
      "semi_major_axis_km": 6853.3344053666,
      "eccentricity": 0.0001195,
      "inclination_deg": 53.1584,
      "raan_deg": 111.3473,
      "arg_perigee_deg": 69.6561,
      "mean_anomaly_deg": 290.4568,
      "mean_motion_rev_day": 15.30205916
    },
    {
      "epoch": "2026-05-08T05:19:29.908416Z",
      "apogee_km": 475.9315794853974,
      "perigee_km": 474.47455938663643,
      "latitude_deg": -4.030475258034786e-05,
      "longitude_deg": 162.07694480000285,
      "height_km": 476.1135299268092,
      "semi_major_axis_km": 6853.340069436017,
      "eccentricity": 0.0001063,
      "inclination_deg": 53.1586,
      "raan_deg": 108.0085,
      "arg_perigee_deg": 90.9633,
      "mean_anomaly_deg": 269.1489,
      "mean_motion_rev_day": 15.30204019
    },
    {
      "epoch": "2026-05-09T04:50:17.929824Z",
      "apogee_km": 475.90985246680884,
      "perigee_km": 474.4110363157206,
      "latitude_deg": 5.677734428041843e-05,
      "longitude_deg": 163.86056681247075,
      "height_km": 476.1837288446262,
      "semi_major_axis_km": 6853.297444391264,
      "eccentricity": 0.00010935,
      "inclination_deg": 53.1589,
      "raan_deg": 103.4578,
      "arg_perigee_deg": 99.6072,
      "mean_anomaly_deg": 260.5053,
      "mean_motion_rev_day": 15.30218295
    },
    {
      "epoch": "2026-05-10T15:19:28.368192Z",
      "apogee_km": 476.2017416697345,
      "perigee_km": 474.24031060265406,
      "latitude_deg": -7.01048055816084e-05,
      "longitude_deg": -1.5279223996056368,
      "height_km": 476.41951830194745,
      "semi_major_axis_km": 6853.358026136194,
      "eccentricity": 0.0001431,
      "inclination_deg": 53.159,
      "raan_deg": 96.7792,
      "arg_perigee_deg": 107.852,
      "mean_anomaly_deg": 252.2636,
      "mean_motion_rev_day": 15.30198005
    },
    {
      "epoch": "2026-05-11T14:50:16.255680Z",
      "apogee_km": 476.0722849849608,
      "perigee_km": 474.3315369015818,
      "latitude_deg": -4.9568416441660104e-05,
      "longitude_deg": 0.2630042602959127,
      "height_km": 475.74674376616724,
      "semi_major_axis_km": 6853.338910943271,
      "eccentricity": 0.000127,
      "inclination_deg": 53.1582,
      "raan_deg": 92.2353,
      "arg_perigee_deg": 66.0576,
      "mean_anomaly_deg": 294.0557,
      "mean_motion_rev_day": 15.30204407
    },
    {
      "epoch": "2026-05-12T14:21:04.239072Z",
      "apogee_km": 476.14965759805546,
      "perigee_km": 474.27732224420924,
      "latitude_deg": 3.288036419924372e-05,
      "longitude_deg": 2.0413770569982623,
      "height_km": 476.1976047007224,
      "semi_major_axis_km": 6853.350489921132,
      "eccentricity": 0.0001366,
      "inclination_deg": 53.1587,
      "raan_deg": 87.6792,
      "arg_perigee_deg": 95.2899,
      "mean_anomaly_deg": 264.8258,
      "mean_motion_rev_day": 15.30200529
    },
    {
      "epoch": "2026-05-13T06:01:36.087168Z",
      "apogee_km": 475.9887069959568,
      "perigee_km": 474.42614446689004,
      "latitude_deg": -1.0784694196268773e-05,
      "longitude_deg": 123.23407403582343,
      "height_km": 476.06298121892615,
      "semi_major_axis_km": 6853.344425731423,
      "eccentricity": 0.000114,
      "inclination_deg": 53.1587,
      "raan_deg": 84.6484,
      "arg_perigee_deg": 86.8771,
      "mean_anomaly_deg": 273.236,
      "mean_motion_rev_day": 15.3020256
    },
    {
      "epoch": "2026-05-14T05:32:24.011808Z",
      "apogee_km": 476.0394717273266,
      "perigee_km": 474.3554703810996,
      "latitude_deg": -2.9285593834710726e-05,
      "longitude_deg": 125.01611736246899,
      "height_km": 476.2429052047243,
      "semi_major_axis_km": 6853.334471054212,
      "eccentricity": 0.00012286,
      "inclination_deg": 53.1591,
      "raan_deg": 80.0958,
      "arg_perigee_deg": 100.08,
      "mean_anomaly_deg": 260.0339,
      "mean_motion_rev_day": 15.30205894
    },
    {
      "epoch": "2026-05-15T05:03:12.151584Z",
      "apogee_km": 475.9795816675605,
      "perigee_km": 474.45882192638146,
      "latitude_deg": -2.8120064670797704e-05,
      "longitude_deg": 126.80147593679824,
      "height_km": 476.1853375849578,
      "semi_major_axis_km": 6853.356201796971,
      "eccentricity": 0.00011095,
      "inclination_deg": 53.1586,
      "raan_deg": 75.5474,
      "arg_perigee_deg": 95.1296,
      "mean_anomaly_deg": 264.9831,
      "mean_motion_rev_day": 15.30198616
    },
    {
      "epoch": "2026-05-16T12:24:15.725088Z",
      "apogee_km": 476.0055333219416,
      "perigee_km": 474.34566101090786,
      "latitude_deg": 1.723474843922298e-05,
      "longitude_deg": 9.180978916071108,
      "height_km": 475.99190531530115,
      "semi_major_axis_km": 6853.312597166424,
      "eccentricity": 0.0001211,
      "inclination_deg": 53.1589,
      "raan_deg": 69.4793,
      "arg_perigee_deg": 84.3477,
      "mean_anomaly_deg": 275.7662,
      "mean_motion_rev_day": 15.3021322
    }
  ]
}